{"type": "FeatureCollection", "features": [ {"type": "Feature", "properties": {"norad_id": 37834, "name": "INTELSAT 18 (IS-18)", "group": "intelsat", "lat": -0.03180641409584383, "lon": -126.37043507963809, "alt_km": 35777.66395957975, "timestamp": "2025-12-03T22:42:32.324529+00:00", "meta": {"OBJECT_NAME": "INTELSAT 18 (IS-18)", "OBJECT_ID": "2011-056A", "EPOCH": "2025-12-02T14:38:27.603744", "MEAN_MOTION": 1.00271068, "ECCENTRICITY": 0.00021353, "INCLINATION": 0.0103, "RA_OF_ASC_NODE": 349.7893, "ARG_OF_PERICENTER": 263.574, "MEAN_ANOMALY": 217.9638, "EPHEMERIS_TYPE": 0, "CLASSIFICATION_TYPE": "U", "NORAD_CAT_ID": 37834, "ELEMENT_SET_NO": 999, "REV_AT_EPOCH": 5184, "BSTAR": 0, "MEAN_MOTION_DOT": 7.3e-07, "MEAN_MOTION_DDOT": 0}, "tle": {"line1": "1 37834U 11056A   25336.61004171  .00000073  00000+0  00000+0 0  9995", "line2": "2 37834   0.0103 349.7893 0002135 263.5740 217.9638  1.00271068 51841"}}, "geometry": {"type": "Point", "coordinates": [-126.37043507963809, -0.03180641409584383]}}, {"type": "Feature", "properties": {"norad_id": 38098, "name": "INTELSAT 22 (IS-22)", "group": "intelsat", "lat": 0.013015470580876825, "lon": 125.72954005006002, "alt_km": 35791.20382266481, "timestamp": "2025-12-03T22:42:32.324540+00:00", "meta": {"OBJECT_NAME": "INTELSAT 22 (IS-22)", "OBJECT_ID": "2012-011A", "EPOCH": "2025-12-03T10:40:30.923904", "MEAN_MOTION": 1.00270985, "ECCENTRICITY": 0.0001695, "INCLINATION": 0.0039, "RA_OF_ASC_NODE": 355.7027, "ARG_OF_PERICENTER": 263.1859, "MEAN_ANOMALY": 45.8802, "EPHEMERIS_TYPE": 0, "CLASSIFICATION_TYPE": "U", "NORAD_CAT_ID": 38098, "ELEMENT_SET_NO": 999, "REV_AT_EPOCH": 522, "BSTAR": 0, "MEAN_MOTION_DOT": -4e-07, "MEAN_MOTION_DDOT": 0}, "tle": {"line1": "1 38098U 12011A   25337.44480236 -.00000040  00000+0  00000+0 0  9997", "line2": "2 38098   0.0039 355.7027 0001695 263.1859  45.8802  1.00270985  5224"}}, "geometry": {"type": "Point", "coordinates": [125.72954005006002, 0.013015470580876825]}}, {"type": "Feature", "properties": {"norad_id": 38356, "name": "INTELSAT 19 (IS-19)", "group": "intelsat", "lat": -0.03468665194038583, "lon": -140.36546672542153, "alt_km": 35774.530869512026, "timestamp": "2025-12-03T22:42:32.324551+00:00", "meta": {"OBJECT_NAME": "INTELSAT 19 (IS-19)", "OBJECT_ID": "2012-030A", "EPOCH": "2025-12-03T04:16:18.861312", "MEAN_MOTION": 1.00271683, "ECCENTRICITY": 0.000347, "INCLINATION": 0.0099, "RA_OF_ASC_NODE": 315.9316, "ARG_OF_PERICENTER": 301.8821, "MEAN_ANOMALY": 44.556, "EPHEMERIS_TYPE": 0, "CLASSIFICATION_TYPE": "U", "NORAD_CAT_ID": 38356, "ELEMENT_SET_NO": 999, "REV_AT_EPOCH": 4848, "BSTAR": 0, "MEAN_MOTION_DOT": -3.7e-07, "MEAN_MOTION_DDOT": 0}, "tle": {"line1": "1 38356U 12030A   25337.17799608 -.00000037  00000+0  00000+0 0  9997", "line2": "2 38356   0.0099 315.9316 0003470 301.8821  44.5560  1.00271683 48486"}}, "geometry": {"type": "Point", "coordinates": [-140.36546672542153, -0.03468665194038583]}}, {"type": "Feature", "properties": {"norad_id": 38740, "name": "INTELSAT 20 (IS-20)", "group": "intelsat", "lat": 0.016837496990829356, "lon": 122.09996462955836, "alt_km": 35781.61710195427, "timestamp": "2025-12-03T22:42:32.324562+00:00", "meta": {"OBJECT_NAME": "INTELSAT 20 (IS-20)", "OBJECT_ID": "2012-043A", "EPOCH": "2025-12-02T22:40:15.332160", "MEAN_MOTION": 1.00274497, "ECCENTRICITY": 0.0003028, "INCLINATION": 0.0125, "RA_OF_ASC_NODE": 336.6425, "ARG_OF_PERICENTER": 218.4136, "MEAN_ANOMALY": 285.5325, "EPHEMERIS_TYPE": 0, "CLASSIFICATION_TYPE": "U", "NORAD_CAT_ID": 38740, "ELEMENT_SET_NO": 999, "REV_AT_EPOCH": 4878, "BSTAR": 0, "MEAN_MOTION_DOT": 0, "MEAN_MOTION_DDOT": 0}, "tle": {"line1": "1 38740U 12043A   25336.94462190  .00000000  00000+0  00000+0 0  9994", "line2": "2 38740   0.0125 336.6425 0003028 218.4136 285.5325  1.00274497 48780"}}, "geometry": {"type": "Point", "coordinates": [122.09996462955836, 0.016837496990829356]}}, {"type": "Feature", "properties": {"norad_id": 38749, "name": "INTELSAT 21 (IS-21)", "group": "intelsat", "lat": 0.022814019550198614, "lon": -4.338649539161303, "alt_km": 35790.82057115436, "timestamp": "2025-12-03T22:42:32.324573+00:00", "meta": {"OBJECT_NAME": "INTELSAT 21 (IS-21)", "OBJECT_ID": "2012-045A", "EPOCH": "2025-12-03T08:20:36.826080", "MEAN_MOTION": 1.00269041, "ECCENTRICITY": 0.0002452, "INCLINATION": 0.0163, "RA_OF_ASC_NODE": 324.7378, "ARG_OF_PERICENTER": 278.7741, "MEAN_ANOMALY": 256.0819, "EPHEMERIS_TYPE": 0, "CLASSIFICATION_TYPE": "U", "NORAD_CAT_ID": 38749, "ELEMENT_SET_NO": 999, "REV_AT_EPOCH": 4856, "BSTAR": 0, "MEAN_MOTION_DOT": -2.66e-06, "MEAN_MOTION_DDOT": 0}, "tle": {"line1": "1 38749U 12045A   25337.34764845 -.00000266  00000+0  00000+0 0  9997", "line2": "2 38749   0.0163 324.7378 0002452 278.7741 256.0819  1.00269041 48563"}}, "geometry": {"type": "Point", "coordinates": [-4.338649539161303, 0.022814019550198614]}}, {"type": "Feature", "properties": {"norad_id": 38867, "name": "INTELSAT 23 (IS-23)", "group": "intelsat", "lat": -0.007498402021798981, "lon": 0.6457694936759052, "alt_km": 35792.67371340589, "timestamp": "2025-12-03T22:42:32.324585+00:00", "meta": {"OBJECT_NAME": "INTELSAT 23 (IS-23)", "OBJECT_ID": "2012-057A", "EPOCH": "2025-12-03T08:21:59.193792", "MEAN_MOTION": 1.00269988, "ECCENTRICITY": 0.0001762, "INCLINATION": 0.0465, "RA_OF_ASC_NODE": 117.5888, "ARG_OF_PERICENTER": 98.834, "MEAN_ANOMALY": 288.5116, "EPHEMERIS_TYPE": 0, "CLASSIFICATION_TYPE": "U", "NORAD_CAT_ID": 38867, "ELEMENT_SET_NO": 999, "REV_AT_EPOCH": 4799, "BSTAR": 0, "MEAN_MOTION_DOT": -2.66e-06, "MEAN_MOTION_DDOT": 0}, "tle": {"line1": "1 38867U 12057A   25337.34860178 -.00000266  00000+0  00000+0 0  9997", "line2": "2 38867   0.0465 117.5888 0001762  98.8340 288.5116  1.00269988 47998"}}, "geometry": {"type": "Point", "coordinates": [0.6457694936759052, -0.007498402021798981]}}, {"type": "Feature", "properties": {"norad_id": 39360, "name": "FM-6", "group": "intelsat", "lat": 0.0020221269310245387, "lon": -62.49666028492024, "alt_km": 35793.17911553566, "timestamp": "2025-12-03T22:42:32.324596+00:00", "meta": {"OBJECT_NAME": "FM-6", "OBJECT_ID": "2013-058A", "EPOCH": "2025-12-03T09:46:43.577184", "MEAN_MOTION": 1.00270039, "ECCENTRICITY": 0.0002808, "INCLINATION": 0.0045, "RA_OF_ASC_NODE": 100.0158, "ARG_OF_PERICENTER": 73.0769, "MEAN_ANOMALY": 289.9269, "EPHEMERIS_TYPE": 0, "CLASSIFICATION_TYPE": "U", "NORAD_CAT_ID": 39360, "ELEMENT_SET_NO": 999, "REV_AT_EPOCH": 4411, "BSTAR": 0, "MEAN_MOTION_DOT": 2e-08, "MEAN_MOTION_DDOT": 0}, "tle": {"line1": "1 39360U 13058A   25337.40744881  .00000002  00000+0  00000+0 0  9994", "line2": "2 39360   0.0045 100.0158 0002808  73.0769 289.9269  1.00270039 44114"}}, "geometry": {"type": "Point", "coordinates": [-62.49666028492024, 0.0020221269310245387]}}, {"type": "Feature", "properties": {"norad_id": 40271, "name": "INTELSAT 30 (IS-30)", "group": "intelsat", "lat": -0.014638000825907917, "lon": -41.426386798593306, "alt_km": 35789.350841747415, "timestamp": "2025-12-03T22:42:32.324610+00:00", "meta": {"OBJECT_NAME": "INTELSAT 30 (IS-30)", "OBJECT_ID": "2014-062A", "EPOCH": "2025-12-03T09:52:43.002048", "MEAN_MOTION": 1.00269864, "ECCENTRICITY": 0.0001171, "INCLINATION": 0.0141, "RA_OF_ASC_NODE": 8.5662, "ARG_OF_PERICENTER": 73.1909, "MEAN_ANOMALY": 43.8727, "EPHEMERIS_TYPE": 0, "CLASSIFICATION_TYPE": "U", "NORAD_CAT_ID": 40271, "ELEMENT_SET_NO": 999, "REV_AT_EPOCH": 482, "BSTAR": 0, "MEAN_MOTION_DOT": -1.32e-06, "MEAN_MOTION_DDOT": 0}, "tle": {"line1": "1 40271U 14062A   25337.41160882 -.00000132  00000+0  00000+0 0  9992", "line2": "2 40271   0.0141   8.5662 0001171  73.1909  43.8727  1.00269864  4829"}}, "geometry": {"type": "Point", "coordinates": [-41.426386798593306, -0.014638000825907917]}}, {"type": "Feature", "properties": {"norad_id": 40333, "name": "DIRECTV 14", "group": "intelsat", "lat": -0.008073219884639226, "lon": -45.57584029271906, "alt_km": 35786.8722785423, "timestamp": "2025-12-03T22:42:32.324621+00:00", "meta": {"OBJECT_NAME": "DIRECTV 14", "OBJECT_ID": "2014-078B", "EPOCH": "2025-12-03T09:51:35.610048", "MEAN_MOTION": 1.00271329, "ECCENTRICITY": 4.35e-05, "INCLINATION": 0.0185, "RA_OF_ASC_NODE": 328.5486, "ARG_OF_PERICENTER": 234.8734, "MEAN_ANOMALY": 277.7581, "EPHEMERIS_TYPE": 0, "CLASSIFICATION_TYPE": "U", "NORAD_CAT_ID": 40333, "ELEMENT_SET_NO": 999, "REV_AT_EPOCH": 4008, "BSTAR": 0, "MEAN_MOTION_DOT": -1.07e-06, "MEAN_MOTION_DDOT": 0}, "tle": {"line1": "1 40333U 14078B   25337.41082882 -.00000107  00000+0  00000+0 0  9993", "line2": "2 40333   0.0185 328.5486 0000435 234.8734 277.7581  1.00271329 40082"}}, "geometry": {"type": "Point", "coordinates": [-45.57584029271906, -0.008073219884639226]}}, {"type": "Feature", "properties": {"norad_id": 40663, "name": "DIRECTV 15", "group": "intelsat", "lat": -0.02531707239487316, "lon": -49.2363571213908, "alt_km": 35785.57914147529, "timestamp": "2025-12-03T22:42:32.324631+00:00", "meta": {"OBJECT_NAME": "DIRECTV 15", "OBJECT_ID": "2015-026A", "EPOCH": "2025-12-02T15:00:23.376384", "MEAN_MOTION": 1.00270418, "ECCENTRICITY": 2.986e-05, "INCLINATION": 0.0433, "RA_OF_ASC_NODE": 100.4968, "ARG_OF_PERICENTER": 166.0499, "MEAN_ANOMALY": 287.4051, "EPHEMERIS_TYPE": 0, "CLASSIFICATION_TYPE": "U", "NORAD_CAT_ID": 40663, "ELEMENT_SET_NO": 999, "REV_AT_EPOCH": 3849, "BSTAR": 0, "MEAN_MOTION_DOT": -8.2e-07, "MEAN_MOTION_DDOT": 0}, "tle": {"line1": "1 40663U 15026A   25336.62527056 -.00000082  00000+0  00000+0 0  9994", "line2": "2 40663   0.0433 100.4968 0000298 166.0499 287.4051  1.00270418 38497"}}, "geometry": {"type": "Point", "coordinates": [-49.2363571213908, -0.02531707239487316]}}]}